STARLINK-5946
1 55990U 23042E   26090.83335647  .00797949  00000+0  30285-1 0  9998
2 55990  42.9988 294.2694 0001418 248.2446 318.6757 15.23512753  5714
STARLINK-5799
1 56002U 23042S   26090.83335647  .01618172  00000+0  60262-1 0  9992
2 56002  42.9992 294.3815 0001250 265.7946 248.2683 15.23483936  5821
STARLINK-5941
1 56013U 23042AD  26090.83335647  .01868370  00000+0  69709-1 0  9996
2 56013  42.9984 294.3681 0001949 240.7208 275.0669 15.23487302  5715
STARLINK-5589
1 57334U 23099G   26090.83335647  .00958628  00000+0  36312-1 0  9994
2 57334  43.0011 127.3351 0001928 295.5108  43.3719 15.23523008  5826
STARLINK-30602
1 58081U 23160G   26090.01071440  .00027489  00000+0  11340-2 0  9998
2 58081  43.0012 318.5761 0001596 272.1632  87.9036 15.23549830136192
